INTELSAT 23 (IS-23)     
1 38867U 12057A   26203.24736662 -.00000282  00000+0  00000+0 0  9997
2 38867   0.0282 287.7936 0000206 259.0345 149.2126  1.00269650 50306
FM-6                    
1 39360U 13058A   26203.25183655 -.00000012  00000+0  00000+0 0  9998
2 39360   0.0074  25.6057 0001338 153.3656  95.3222  1.00270062 46420
INTELSAT 30 (IS-30)     
1 40271U 14062A   26203.24072392 -.00000148  00000+0  00000+0 0  9991
2 40271   0.0165  55.1781 0001611 343.6655 252.7557  1.00270597  7142
DIRECTV 14              
1 40333U 14078B   26203.24072392 -.00000122  00000+0  00000+0 0  9999
2 40333   0.0121  51.8105 0000598 356.7464 238.8498  1.00273652 42392
DIRECTV 15              
1 40663U 15026A   26203.24627885 -.00000100  00000+0  00000+0 0  9998
2 40663   0.0209  79.3108 0000694 296.1878 270.2702  1.00275273 40810
SKY MEXICO-1            
1 40664U 15026B   26203.24225326 -.00000231  00000+0  00000+0 0  9998
2 40664   0.0189 303.5914 0002695 190.9663 173.8401  1.00270626 40801
INTELSAT 34 (IS-34)     
1 40874U 15039A   26203.10435530 -.00000283  00000+0  00000+0 0  9997
2 40874   0.0097 353.0598 0000587  45.3672 243.5051  1.00270872 39987
INTELSAT 31 (IS-31)     
1 41581U 16035A   26203.24072392 -.00000148  00000+0  00000+0 0  9998
2 41581   0.0144 289.7389 0000937  23.5579 338.3016  1.00271011 37036
INTELSAT 36 (IS-36)     
1 41747U 16053A   26203.12888208 -.00000021  00000+0  00000+0 0  9990
2 41747   0.0104  33.5871 0002393 316.6819  64.4989  1.00272116 36300
INTELSAT 32E (IS-32E)   
1 41945U 17007B   26203.24935997 -.00000266  00000+0  00000+0 0  9992
2 41945   0.0129  36.4499 0000533  12.4647 297.6619  1.00269941 34578
INTELSAT 35E (IS-35E)   
1 42818U 17041A   26203.09836519  .00000000  00000+0  00000+0 0  9998
2 42818   0.0246  59.1948 0002194  60.4805 181.0980  1.00269627 33165
INTELSAT 37E (IS-37E)   
1 42950U 17059A   26203.08725427 -.00000138  00000+0  00000+0 0  9991
2 42950   0.0169  71.3616 0002886  53.6173 188.2703  1.00272517 32415
AZERSPACE 2 (IS-38)     
1 43632U 18074A   26203.07058862  .00000139  00000+0  00000+0 0  9998
2 43632   0.0189  53.5781 0001463  64.3352 252.4286  1.00272632 28792
HORIZONS-3E             
1 43633U 18074B   26203.16850233 -.00000027  00000+0  00000+0 0  9998
2 43633   0.0372 232.2432 0000414  78.9420 218.3797  1.00272639 28692
AT&T T-16               
1 44333U 19034A   26202.66764053 -.00000113  00000+0  00000+0 0  9997
2 44333   0.0150  76.5465 0000508 295.6923  66.6677  1.00269706 25979
INTELSAT 39 (IS-39)     
1 44476U 19049B   26203.12758208  .00000036  00000+0  00000+0 0  9991
2 44476   0.0140  35.3340 0000927 325.0726  47.3423  1.00271307 25475
GALAXY 30 (G-30)        
1 46114U 20056C   26202.66287383  .00000039  00000+0  00000+0 0  9994
2 46114   0.0168  63.2469 0002201  53.4298 296.3683  1.00271000 21639
GALAXY 33 (G-33)        
1 54026U 22128A   26202.73259257  .00000081  00000+0  00000+0 0  9991
2 54026   0.0119 334.1596 0001850 148.5438 307.5206  1.00276179 14087
GALAXY 34 (G-34)        
1 54027U 22128B   26203.16110736  .00000062  00000+0  00000+0 0  9997
2 54027   0.0122  45.3211 0001870  78.4931 105.0934  1.00270104 14269
GALAXY 31 (G-31)        
1 54243U 22153A   26203.25183655  .00000000  00000+0  00000+0 0  9997
2 54243   0.0133  63.5116 0001430  60.8712 145.2838  1.00272291  7485
GALAXY 32 (G-32)        
1 54244U 22153B   26202.81207451 -.00000172  00000+0  00000+0 0  9991
2 54244   0.0099  29.1953 0001503  25.3101  86.4087  1.00271828 13498
GALAXY 35 (G-35)        
1 54741U 22170A   26203.24072392 -.00000159  00000+0  00000+0 0  9999
2 54741   0.0014  35.5369 0002090  83.6227 174.3803  1.00271695 13245
GALAXY 36 (G-36)        
1 54742U 22170B   26203.24025992 -.00000182  00000+0  00000+0 0  9990
2 54742   0.0213 128.1981 0002776 333.3358 195.9449  1.00271563 13123
GALAXY 37 (G-37)        
1 57493U 23112A   26203.23271988  .00000051  00000+0  00000+0 0  9994
2 57493   0.0172  61.8854 0002118  56.0474 138.8263  1.00273126 10891
