OBJECT_NAME,OBJECT_ID,EPOCH,MEAN_MOTION,ECCENTRICITY,INCLINATION,RA_OF_ASC_NODE,ARG_OF_PERICENTER,MEAN_ANOMALY,EPHEMERIS_TYPE,CLASSIFICATION_TYPE,NORAD_CAT_ID,ELEMENT_SET_NO,REV_AT_EPOCH,BSTAR,MEAN_MOTION_DOT,MEAN_MOTION_DDOT
INTELSAT 23 (IS-23),2012-057A,2026-07-22T05:56:12.475968,1.00269650,.00002062,0.0282,287.7936,259.0345,149.2126,0,U,38867,999,5030,0,-.282E-5,0
FM-6,2013-058A,2026-07-22T06:02:38.677920,1.00270062,.00013385,0.0074,25.6057,153.3656,95.3222,0,U,39360,999,4642,0,-.12E-6,0
INTELSAT 30 (IS-30),2014-062A,2026-07-22T05:46:38.546688,1.00270597,.00016111,0.0165,55.1781,343.6655,252.7557,0,U,40271,999,714,0,-.148E-5,0
DIRECTV 14,2014-078B,2026-07-22T05:46:38.546688,1.00273652,.00005985,0.0121,51.8105,356.7464,238.8498,0,U,40333,999,4239,0,-.122E-5,0
DIRECTV 15,2015-026A,2026-07-22T05:54:38.492640,1.00275273,.00006949,0.0209,79.3108,296.1878,270.2702,0,U,40663,999,4081,0,-.1E-5,0
SKY MEXICO-1,2015-026B,2026-07-22T05:48:50.681664,1.00270626,.00026951,0.0189,303.5914,190.9663,173.8401,0,U,40664,999,4080,0,-.231E-5,0
INTELSAT 34 (IS-34),2015-039A,2026-07-22T02:30:16.297920,1.00270872,.00005874,0.0097,353.0598,45.3672,243.5051,0,U,40874,999,3998,0,-.283E-5,0
INTELSAT 31 (IS-31),2016-035A,2026-07-22T05:46:38.546688,1.00271011,.0000937,0.0144,289.7389,23.5579,338.3016,0,U,41581,999,3703,0,-.148E-5,0
INTELSAT 36 (IS-36),2016-053A,2026-07-22T03:05:35.411712,1.00272116,.00023935,0.0104,33.5871,316.6819,64.4989,0,U,41747,999,3630,0,-.21E-6,0
INTELSAT 32E (IS-32E),2017-007B,2026-07-22T05:59:04.701408,1.00269941,.00005336,0.0129,36.4499,12.4647,297.6619,0,U,41945,999,3457,0,-.266E-5,0
INTELSAT 35E (IS-35E),2017-041A,2026-07-22T02:21:38.752416,1.00269627,.00021942,0.0246,59.1948,60.4805,181.0980,0,U,42818,999,3316,0,0,0
INTELSAT 37E (IS-37E),2017-059A,2026-07-22T02:05:38.768928,1.00272517,.00028869,0.0169,71.3616,53.6173,188.2703,0,U,42950,999,3241,0,-.138E-5,0
AZERSPACE 2 (IS-38),2018-074A,2026-07-22T01:41:38.856768,1.00272632,.0001463,0.0189,53.5781,64.3352,252.4286,0,U,43632,999,2879,0,.139E-5,0
HORIZONS-3E,2018-074B,2026-07-22T04:02:38.601312,1.00272639,.00004147,0.0372,232.2432,78.9420,218.3797,0,U,43633,999,2869,0,-.27E-6,0
AT&T T-16,2019-034A,2026-07-21T16:01:24.141792,1.00269706,.00005081,0.0150,76.5465,295.6923,66.6677,0,U,44333,999,2597,0,-.113E-5,0
INTELSAT 39 (IS-39),2019-049B,2026-07-22T03:03:43.091712,1.00271307,.00009271,0.0140,35.3340,325.0726,47.3423,0,U,44476,999,2547,0,.36E-6,0
GALAXY 30 (G-30),2020-056C,2026-07-21T15:54:32.298912,1.00271000,.0002201,0.0168,63.2469,53.4298,296.3683,0,U,46114,999,2163,0,.39E-6,0
GALAXY 33 (G-33),2022-128A,2026-07-21T17:34:55.998048,1.00276179,.000185,0.0119,334.1596,148.5438,307.5206,0,U,54026,999,1408,0,.81E-6,0
GALAXY 34 (G-34),2022-128B,2026-07-22T03:51:59.675904,1.00270104,.00018701,0.0122,45.3211,78.4931,105.0934,0,U,54027,999,1426,0,.62E-6,0
GALAXY 31 (G-31),2022-153A,2026-07-22T06:02:38.677920,1.00272291,.00014305,0.0133,63.5116,60.8712,145.2838,0,U,54243,999,748,0,0,0
GALAXY 32 (G-32),2022-153B,2026-07-21T19:29:23.237664,1.00271828,.00015036,0.0099,29.1953,25.3101,86.4087,0,U,54244,999,1349,0,-.172E-5,0
GALAXY 35 (G-35),2022-170A,2026-07-22T05:46:38.546688,1.00271695,.00020901,0.0014,35.5369,83.6227,174.3803,0,U,54741,999,1324,0,-.159E-5,0
GALAXY 36 (G-36),2022-170B,2026-07-22T05:45:58.457088,1.00271563,.00027764,0.0213,128.1981,333.3358,195.9449,0,U,54742,999,1312,0,-.182E-5,0
GALAXY 37 (G-37),2023-112A,2026-07-22T05:35:06.997632,1.00273126,.0002118,0.0172,61.8854,56.0474,138.8263,0,U,57493,999,1089,0,.51E-6,0
